[{"OBJECT_NAME":"TISAT 1","OBJECT_ID":"2010-035E","EPOCH":"2026-03-09T18:10:07.877568","MEAN_MOTION":15.27628633,"ECCENTRICITY":0.00013432,"INCLINATION":98.0645,"RA_OF_ASC_NODE":6.8512,"ARG_OF_PERICENTER":159.303,"MEAN_ANOMALY":200.8262,"EPHEMERIS_TYPE":0,"CLASSIFICATION_TYPE":"U","NORAD_CAT_ID":36799,"ELEMENT_SET_NO":999,"REV_AT_EPOCH":85250,"BSTAR":0.00091004793,"MEAN_MOTION_DOT":0.00024554,"MEAN_MOTION_DDOT":0},{"OBJECT_NAME":"STARLINK-35292","OBJECT_ID":"2025-253D","EPOCH":"2026-03-09T09:46:40.895328","MEAN_MOTION":15.27599112,"ECCENTRICITY":0.0001924,"INCLINATION":43,"RA_OF_ASC_NODE":213.9049,"ARG_OF_PERICENTER":267.9538,"MEAN_ANOMALY":92.1093,"EPHEMERIS_TYPE":0,"CLASSIFICATION_TYPE":"U","NORAD_CAT_ID":66322,"ELEMENT_SET_NO":999,"REV_AT_EPOCH":2020,"BSTAR":0.0015378059,"MEAN_MOTION_DOT":0.00042324,"MEAN_MOTION_DDOT":0}]
