TISAT 1                 
1 36799U 10035E   26068.75703561  .00024554  00000+0  91005-3 0  9996
2 36799  98.0645   6.8512 0001343 159.3030 200.8262 15.27628633852505
STARLINK-35292          
1 66322U 25253D   26068.40741777  .00042324  00000+0  15378-2 0  9995
2 66322  43.0000 213.9049 0001924 267.9538  92.1093 15.27599112 20202
